[{"OBJECT_NAME":"STARLINK-36449","OBJECT_ID":"2026-002D","EPOCH":"2026-03-09T23:33:54.800928","MEAN_MOTION":15.27599855,"ECCENTRICITY":9.3e-5,"INCLINATION":42.9988,"RA_OF_ASC_NODE":323.6119,"ARG_OF_PERICENTER":255.2706,"MEAN_ANOMALY":104.8043,"EPHEMERIS_TYPE":0,"CLASSIFICATION_TYPE":"U","NORAD_CAT_ID":67308,"ELEMENT_SET_NO":999,"REV_AT_EPOCH":1118,"BSTAR":0.00089905651,"MEAN_MOTION_DOT":0.00024575,"MEAN_MOTION_DDOT":0},{"OBJECT_NAME":"ELECTRON KICK STAGE R\/B","OBJECT_ID":"2022-147B","EPOCH":"2026-03-09T22:28:20.187264","MEAN_MOTION":15.28920172,"ECCENTRICITY":0.00095089,"INCLINATION":97.642,"RA_OF_ASC_NODE":85.1135,"ARG_OF_PERICENTER":110.4683,"MEAN_ANOMALY":249.7578,"EPHEMERIS_TYPE":0,"CLASSIFICATION_TYPE":"U","NORAD_CAT_ID":54228,"ELEMENT_SET_NO":999,"REV_AT_EPOCH":18390,"BSTAR":0.00083201931,"MEAN_MOTION_DOT":0.00023374,"MEAN_MOTION_DDOT":0}]
